SL-8 R/B                
1 20775U 90078B   26061.98983187  .00016397  00000+0  48171-3 0  9992
2 20775  82.8990 257.3366 0363882  36.5052 326.0384 14.88795510808305
SL-8 R/B                
1 21088U 91006B   26062.37746789  .00000061  00000+0  45358-4 0  9997
2 21088  82.9464 174.7381 0023401  55.3462   5.2106 13.77493385763202
OKEAN-3                 
1 21397U 91039A   26062.29532521  .00003834  00000+0  26958-3 0  9999
2 21397  82.5200 343.0367 0014335   1.3088 358.8173 15.04748575864079
COSMOS 2151             
1 21422U 91042A   26062.54654490  .00002386  00000+0  18906-3 0  9995
2 21422  82.4930  89.6036 0014136  81.8958 278.3869 15.00076401862277
SL-14 R/B               
1 21423U 91042B   26062.47782703  .00000628  00000+0  76495-4 0  9992
2 21423  82.4910 226.0076 0015598 260.8398  99.1051 14.81821877852158
ERS-1                   
1 21574U 91050A   26062.02426083  .00000373  00000+0  13389-3 0  9994
2 21574  98.7885  80.0912 0031273 220.5217 139.3642 14.39443076814777
ARIANE 40 R/B           
1 21610U 91050F   26062.16041516  .00000350  00000+0  11721-3 0  9997
2 21610  98.2026 114.6416 0004357  95.3900 264.7788 14.42887827818052
INTERCOSMOS 25          
1 21819U 91086A   26062.13582232  .00001543  00000+0  29578-3 0  9993
2 21819  82.6064 313.9690 1487061 131.0519 242.9013 12.11978116495890
SL-8 R/B                
1 21876U 92008B   26062.11565973  .00000006  00000+0 -10117-4 0  9996
2 21876  82.9227 272.6698 0035217 151.2540 324.8285 13.75969816708510
SL-8 R/B                
1 21938U 92020B   26062.36464058  .00000089  00000+0  76656-4 0  9998
2 21938  82.9340 158.4563 0027916 317.1968 107.5530 13.75548624700264
USA 81                  
1 21949U 92023A   26062.30174788  .00000227  00000+0  76723-4 0  9994
2 21949  85.0098 135.1261 0002589  82.4759 277.6728 14.32365444 93877
COSMOS 2219             
1 22219U 92076A   26062.36678682  .00000301  00000+0  18266-3 0  9991
2 22219  71.0618  31.2845 0019334 215.5019 144.4818 14.14089002717483
SL-16 R/B               
1 22220U 92076B   26062.48416044  .00000062  00000+0  54693-4 0  9997
2 22220  70.9998 201.4439 0010623 107.8705 315.1002 14.16859943720950
COSMOS 2221             
1 22236U 92080A   26062.08327566  .00002025  00000+0  17727-3 0  9992
2 22236  82.5019 285.4101 0013466 210.3026 149.7419 14.96170383779805
SL-16 R/B               
1 22285U 92093B   26062.30851934 -.00000132  00000+0 -43252-4 0  9998
2 22285  71.0238  17.6603 0006286 300.4923  59.5579 14.15449567712251
COSMOS 2228             
1 22286U 92094A   26062.50501336  .00003228  00000+0  27655-3 0  9995
2 22286  82.5144 243.2332 0017191 326.7174  33.2966 14.97152546775130
SL-16 R/B               
1 22566U 93016B   26062.48966914  .00000328  00000+0  19271-3 0  9998
2 22566  71.0057 228.2030 0011355 322.7971  37.2364 14.15305152701297
